IRIDIUM 116             
1 43072U 17083C   26003.14267455  .00000413  00000+0  14043-3 0  9992
2 43072  86.3950  30.9807 0002393  85.0693 275.0776 14.34216741420513
IRIDIUM 130             
1 43073U 17083D   26003.11096373  .00000062  00000+0  14977-4 0  9996
2 43073  86.3955  31.2533 0002524  90.2953 269.8532 14.34217759420456
IRIDIUM 151             
1 43074U 17083E   26003.15536032  .00000062  00000+0  14993-4 0  9990
2 43074  86.3953  31.0295 0002161  90.3846 269.7598 14.34218021420484
IRIDIUM 134             
1 43075U 17083F   26003.12364800  .00000333  00000+0  11190-3 0  9996
2 43075  86.3954  31.0487 0002352  92.7307 267.4158 14.34217522420447
IRIDIUM 137             
1 43076U 17083G   26003.13633288  .00000501  00000+0  17170-3 0  9998
2 43076  86.3955  31.1330 0002206  77.9580 282.1863 14.34217333420518
IRIDIUM 141             
1 43077U 17083H   26003.12998918  .00000379  00000+0  12818-3 0  9999
2 43077  86.3948  30.9761 0002100  96.6122 263.5312 14.34218852420518
IRIDIUM 153             
1 43078U 17083J   26003.08216822 -.00000002  00000+0 -79021-5 0  9998
2 43078  86.3969 359.4878 0001975  99.5434 260.5985 14.34216186421610
IRIDIUM 131             
1 43079U 17083K   26003.11730493  .00000154  00000+0  47865-4 0  9994
2 43079  86.3958  31.1556 0002121  92.7898 267.3541 14.34218137420440
